[{"OBJECT_NAME":"OBJECT V","OBJECT_ID":"2025-155V","EPOCH":"2026-03-09T20:35:20.067360","MEAN_MOTION":15.27583301,"ECCENTRICITY":0.00080353,"INCLINATION":97.4485,"RA_OF_ASC_NODE":37.249,"ARG_OF_PERICENTER":152.8264,"MEAN_ANOMALY":207.3397,"EPHEMERIS_TYPE":0,"CLASSIFICATION_TYPE":"U","NORAD_CAT_ID":64895,"ELEMENT_SET_NO":999,"REV_AT_EPOCH":6557,"BSTAR":0.00051002361,"MEAN_MOTION_DOT":0.00013705,"MEAN_MOTION_DDOT":0},{"OBJECT_NAME":"STARLINK-36146","OBJECT_ID":"2026-005Y","EPOCH":"2026-03-09T12:06:16.216704","MEAN_MOTION":15.27600398,"ECCENTRICITY":0.00020689,"INCLINATION":42.9999,"RA_OF_ASC_NODE":239.4128,"ARG_OF_PERICENTER":283.3401,"MEAN_ANOMALY":76.722,"EPHEMERIS_TYPE":0,"CLASSIFICATION_TYPE":"U","NORAD_CAT_ID":67426,"ELEMENT_SET_NO":999,"REV_AT_EPOCH":865,"BSTAR":0.0011987752,"MEAN_MOTION_DOT":0.00032894,"MEAN_MOTION_DDOT":0}]
